OPS 6582 (TRANSIT 5B-5) 
1 00965U 64083D   24055.65764880  .00000075  00000+0  92976-4 0  9999
2 00965  90.0435 197.7352 0040048 222.5769 148.0196 13.56864324929782
LES-1                   
1 01002U 65008C   24055.45731493  .00000009  00000+0  14869-3 0  9993
2 01002  32.1386 243.4697 0013836 104.1594 256.0441  9.88354137132712
SOLRAD 7B               
1 01291U 65016D   24055.59556855  .00000062  00000+0  84813-4 0  9990
2 01291  70.0772 229.4984 0019941 155.4886 204.7172 13.94758254999106
SECOR 4 (EGRS 4)        
1 01315U 65027B   24055.57973975 -.00000016  00000+0 -84554-4 0  9996
2 01315  90.2478 356.7980 0029497 241.8151 291.8683 12.92637121777937
TIROS 10                
1 01430U 65051A   24055.56357569  .00000391  00000+0  13319-3 0  9999
2 01430  98.4225 171.9683 0057118  93.1735 267.5991 14.40815000 74828
ALOUETTE 2              
1 01804U 65098A   24055.57609753  .00001071  00000+0  34728-3 0  9994
2 01804  79.7972 273.5211 1336968 141.2098 229.3089 12.26861145575756
OV3-3                   
1 02389U 66070A   24055.57189653  .00011610  00000+0  58696-3 0  9996
2 02389  81.3394 339.4393 1137693 141.6599 227.1253 13.16145813486677
SECOR 7 (EGRS 7)        
1 02411U 66077B   24055.54115088  .00000022  00000+0  10116-1 0  9995
2 02411  90.3173 267.6334 0015112 187.2104 172.8532  8.59615984804888
ERS 15                  
1 02412U 66077C   24055.59539308  .00000002  00000+0  00000+0 0  9993
2 02412  90.3182 267.4343 0008977 191.9944 168.0694  8.59077015318010
ISIS 1                  
1 03669U 69009A   24055.73439231  .00000551  00000+0  38162-3 0  9999
2 03669  88.4245 236.7166 1710546 150.5154 220.4487 11.29861703264831
SECOR 13 (EGRS 13)      
1 03891U 69037B   24055.59860853 -.00000003  00000+0  70562-4 0  9993
2 03891  99.7699 307.6016 0039768 157.6457 265.0729 13.42919309688524
ATS 5                   
1 04068U 69069A   24055.33361296 -.00000196  00000+0  00000+0 0  9992
2 04068   2.1282 270.6763 0003645 358.5121 354.1864  0.99496266 37922
OPS 7613 (P/L 4)        
1 04237U 69082E   24055.55011503  .00000090  00000+0  10471-3 0  9991
2 04237  70.0137 105.7667 0019329 157.9926 313.9151 13.95728380768573
OPS 7613 (P/L 1)        
1 04256U 69082B   24055.48288071  .00000215  00000+0  18638-3 0  9992
2 04256  70.0123 336.8872 0016404  90.5274 269.7713 13.98717715772461
SHINSEI (MS-F2)         
1 05485U 71080A   24055.55690373  .00000107  00000+0  15177-3 0  9993
2 05485  32.0554 153.3636 0639981 221.2650 133.7832 12.74183807441607
PROSPERO (BLACK ARROW)  
1 05580U 71093A   24055.16069054  .00001488  00000+0  32363-3 0  9995
2 05580  82.0415 309.4928 0518901 120.6406 244.6986 13.97337852630442
OPS 7898 (P/L 2)        
1 05680U 71110C   24055.42738589  .00000036  00000+0  90341-4 0  9990
2 05680  69.9906 304.0217 0006957 168.5416 191.5838 13.74622389232259
NOAA 2 (ITOS-D)         
1 06235U 72082A   24055.57544049 -.00000028  00000+0  11856-3 0  9993
2 06235 102.0131  53.2509 0003907 341.2841 133.8243 12.53175329349279
OSCAR 7 (AO-7)          
1 07530U 74089B   24055.60406104 -.00000039  00000+0  43187-4 0  9999
2 07530 101.9736  49.2094 0011961 302.0900 168.1844 12.53672569254801
TIROS N                 
1 11060U 78096A   24055.59590894  .00000275  00000+0  15253-3 0  9995
2 11060  98.5492 100.1532 0010996 158.9650 201.1981 14.18737635559105
PHASE 3B (AO-10)        
1 14129U 83058B   24048.94385954 -.00000277  00000+0  00000+0 0  9991
2 14129  27.4706 358.0906 6032047 245.6237  42.0400  2.05871522277982
HILAT                   
1 14154U 83063A   24055.70439147  .00000729  00000+0  23721-3 0  9991
2 14154  82.0228 224.5330 0039488 326.1447  45.7728 14.37322634126611
UOSAT 2 (UO-11)         
1 14781U 84021B   24055.52486037  .00002593  00000+0  30172-3 0  9991
2 14781  97.6918  28.3511 0009828  91.4260 268.8081 14.86093037131607
NOAA 9                  
1 15427U 84123A   24055.60482865  .00000266  00000+0  15670-3 0  9997
2 15427  99.1140  50.2845 0014178 214.7786 254.2297 14.16518430 23969
GEOSAT                  
1 15595U 85021A   24055.45708361  .00000321  00000+0  14802-3 0  9994
2 15595 108.0552 125.9932 0001580 263.2710  96.8251 14.38861959 41352
EUTELSAT 1-F4 (ECS 4)   
1 18351U 87078B   24054.82132642 -.00000008  00000+0  00000+0 0  9998
2 18351  14.4323 348.1249 0010587  25.7155 160.3487  0.98686573118421
AKEBONO (EXOS-D)        
1 19822U 89016A   24055.35937208  .00104560  18115-5  83986-3 0  9993
2 19822  74.9356  45.9453 0889328 120.6378 248.5519 14.02525205210208
PACSAT (AO-16)          
1 20439U 90005D   24055.78003696  .00000315  00000+0  13119-3 0  9993
2 20439  98.9000  57.7343 0010718 178.3930 356.3065 14.33288675781330
LUSAT (LO-19)           
1 20442U 90005G   24055.52099305  .00000320  00000+0  13269-3 0  9993
2 20442  98.8749  42.8517 0012124 154.1924 205.9866 14.33445801781490
IRS-1B                  
1 21688U 91061A   24055.53437472  .00000364  00000+0  29008-3 0  9997
2 21688  99.3535  33.5129 0025041 135.0143 331.7890 13.97582420550634
COSMOS 2197             
1 22034U 92042A   24055.71158119  .00000023  00000+0  67054-4 0  9997
2 22034  82.5921  47.9010 0013303  37.6765 135.6501 12.64209763458991
PEGASUS R/B             
1 22491U 93009C   24055.15206956  .00001841  00000+0  36867-3 0  9995
2 22491  24.9784 351.3477 0046203  21.0556 339.1846 14.55075402646427
EYESAT A (AO-27)        
1 22825U 93061C   24055.38425139  .00000196  00000+0  92778-4 0  9991
2 22825  98.8059 106.8905 0009258  56.3441 303.8623 14.30431741586345
ITAMSAT (IO-26)         
1 22826U 93061D   24055.60265120  .00000228  00000+0  10433-3 0  9992
2 22826  98.8005 106.9732 0009583  42.0085 318.1830 14.30806492586655
RADIO ROSTO (RS-15)     
1 23439U 94085A   24055.59084376 -.00000046  00000+0 -98230-4 0  9992
2 23439  64.8132 227.4749 0153845 164.9032 195.6558 11.27576096200783
JAS-2 (FO-29)           
1 24278U 96046B   24055.84534397  .00000023  00000+0  56871-4 0  9992
2 24278  98.5687   5.4199 0351007 121.7767 241.8072 13.53173077359359
FORTE                   
1 24920U 97047A   24055.62089743  .00000399  00000+0  18684-3 0  9999
2 24920  69.9530 118.2157 0023244 339.9111  20.1093 14.27016376378569
NOAA 15                 
1 25338U 98030A   24055.82152913  .00000297  00000+0  14120-3 0  9996
2 25338  98.5822  85.2517 0009316 298.5946  61.4297 14.26500880341277
TECHSAT 1B (GO-32)      
1 25397U 98043D   24055.48140871  .00000190  00000+0  10272-3 0  9993
2 25397  98.9074  20.5988 0002243 109.7609 250.3811 14.23990982331239
ISS (ZARYA)             
1 25544U 98067A   24055.76463962  .00070080  00000+0  12541-2 0  9998
2 25544  51.6403 157.4567 0005698 285.7504 173.0809 15.49319938440968
ORSTED                  
1 25635U 99008B   24055.51494754  .00000774  00000+0  18643-3 0  9994
2 25635  96.4786 146.5789 0136009  10.8017 349.6051 14.49645914319636
LANDSAT 7               
1 25682U 99020A   24055.86317868  .00000706  00000+0  15457-3 0  9993
2 25682  97.9017  87.9417 0001275  80.0154  92.9844 14.60480552322656
ORBCOMM FM36            
1 25984U 99065E   24055.77831760  .00001878  00000+0  69968-3 0  9996
2 25984  45.0388 192.7684 0002379  70.1235 289.9869 14.35217419266219
DMSP 5D-3 F15 (USA 147) 
1 25991U 99067A   24055.60886042  .00000324  00000+0  18468-3 0  9995
2 25991  99.0717  68.8245 0009170 235.1175 233.3362 14.16920433251154
OPAL (OO-38)            
1 26063U 00004C   24055.61990918  .00000405  00000+0  15498-3 0  9998
2 26063 100.1939 184.7182 0035596 257.0721 102.6483 14.37230756262074
IMAGE                   
1 26113U 00017A   24053.16417668  .00000048  00000+0  11286-1 0  9994
2 26113  94.4554 301.6071 7430446  29.0270 357.1167  1.68654277147235
CLUSTER II-FM7 (SAMBA)  
1 26410U 00041A   24056.26226636  .00000060  00000+0  00000+0 0  9992
2 26410 138.1901 356.0487 7194967 210.8423 359.4642  0.44182540 16541
CLUSTER II-FM6 (SALSA)  
1 26411U 00041B   24056.23862840  .00002048  00000+0  00000+0 0  9991
2 26411 145.9962  14.4060 8793838 228.8952 359.4019  0.44230999 16603
CLUSTER II-FM5 (RUMBA)  
1 26463U 00045A   24056.25483360  .00001555  00000+0  00000+0 0  9992
2 26463 148.3590  11.6227 8308650 226.7398 359.4747  0.44212817 16475
CLUSTER II-FM8 (TANGO)  
1 26464U 00045B   24056.26199529  .00000060  00000+0  00000+0 0  9995
2 26464 138.1982 356.0479 7191128 210.8509 359.4629  0.44222184 16556
MEGSAT-1                
1 26546U 00057B   24055.58097917  .00004676  00000+0  42556-3 0  9994
2 26546  64.5521 234.3052 0034435 238.0840 121.6922 14.95938226271025
PHASE 3D (AO-40)        
1 26609U 00072B   24054.92277668 -.00000236  00000+0  00000+0 0  9994
2 26609   5.9387 132.4715 7942580 258.0177  12.8206  1.25588531106908
ODIN                    
1 26702U 01007A   24055.57688741  .00012402  00000+0  58969-3 0  9995
2 26702  97.4916  71.4669 0006950 330.5796  29.5046 15.19314927259634
OMNI-M1                 
1 26857U 01026A   24054.06694426 -.00000020  00000+0  00000+0 0  9990
2 26857  44.8989  79.5600 0016288 210.6184 149.3420  3.92402039172405
PCSAT (NO-44)           
1 26931U 01043C   24055.57721630  .00000296  00000+0  14364-3 0  9993
2 26931  67.0496 265.0327 0005188 275.2719  84.7790 14.31130572169698
PROBA-1                 
1 26958U 01049B   24055.77414542  .00003517  00000+0  27544-3 0  9994
2 26958  97.9084  30.2987 0063229  84.5847 276.2584 15.00113380216887
SPOT 5                  
1 27421U 02021A   24055.44601876  .00000699  00000+0  16125-3 0  9994
2 27421  98.1048 115.6728 0133306  14.9103 345.5965 14.53058925140231
FENGYUN 1D              
1 27431U 02024B   24055.83948947  .00000105  00000+0  85082-4 0  9995
2 27431  99.0705  93.5871 0016421  91.8403 268.4648 14.09946671120706
SAUDISAT 1C (SO-50)     
1 27607U 02058C   24055.58026854  .00002921  00000+0  41433-3 0  9992
2 27607  64.5544 210.5722 0038200 161.6965 198.5524 14.78382461139526
